[{"OBJECT_NAME":"STARLINK-1876","OBJECT_ID":"2020-088AR","EPOCH":"2026-03-09T22:56:33.901152","MEAN_MOTION":15.63378718,"ECCENTRICITY":9.902e-5,"INCLINATION":53.0523,"RA_OF_ASC_NODE":270.431,"ARG_OF_PERICENTER":89.3659,"MEAN_ANOMALY":270.7468,"EPHEMERIS_TYPE":0,"CLASSIFICATION_TYPE":"U","NORAD_CAT_ID":47161,"ELEMENT_SET_NO":999,"REV_AT_EPOCH":29230,"BSTAR":0.00095322779,"MEAN_MOTION_DOT":0.00089898,"MEAN_MOTION_DDOT":0},{"OBJECT_NAME":"STARLINK-2225","OBJECT_ID":"2021-041X","EPOCH":"2026-03-10T00:00:02.999808","MEAN_MOTION":15.27069763,"ECCENTRICITY":0.00014642,"INCLINATION":53.1456,"RA_OF_ASC_NODE":99.5289,"ARG_OF_PERICENTER":89.1304,"MEAN_ANOMALY":151.4925,"EPHEMERIS_TYPE":0,"CLASSIFICATION_TYPE":"U","NORAD_CAT_ID":48574,"ELEMENT_SET_NO":999,"REV_AT_EPOCH":574,"BSTAR":0.059549049,"MEAN_MOTION_DOT":0.01753094,"MEAN_MOTION_DDOT":0}]
